SENTINEL-6              
1 46984U 20086A   24012.61131940 -.00000061  00000+0  45646-6 0  9999
2 46984  66.0396 176.4785 0007710 269.7028  90.3104 12.80930186146770
